KUIPER-00560            
1 69623U 26140AH  26192.55021718  .00013892  00000+0  36564-3 0  9997
2 69623  51.8792 280.7614 0008829 295.2818  64.7254 15.38797580  4982
KUIPER-00561            
1 69624U 26140AJ  26192.74769253 -.00566727  00000+0 -15961-1 0  9990
2 69624  51.8826 279.8412 0009245 285.6749  74.3218 15.38107852  5014
KUIPER-00564            
1 69625U 26140AK  26192.55379724  .00009777  00000+0  27356-3 0  9998
2 69625  51.8812 280.7881 0009375 286.2520  73.7435 15.37273245  4987
KUIPER-00567            
1 69626U 26140AL  26191.76783136  .00213007  00000+0  54503-2 0  9993
2 69626  51.8786 284.5160 0014213 269.5283  90.4076 15.37993440  4867
KUIPER-00573            
1 69627U 26140AM  26192.49611577  .00014175  00000+0  38988-3 0  9999
2 69627  51.8794 281.1424 0009230 272.3380  87.6550 15.37412133  4978
KZ-11 R/B               
1 69628U 26138H   26191.96318840  .00788390  97052-5  78775-3 0  9999
2 69628  55.1536 176.5360 0388339 138.7737 224.3326 15.40134767  3593
CENTISPACE-1 GROUP 05 O*
1 69636U 26138J   26192.49849381 -.00000307  00000+0 -77573-4 0  9990
2 69636  55.1383 191.3451 0009375 336.9016  23.1536 14.15842887  3431
VICTUS HAZE PUMA        
1 69646U 26142A   26192.75811458  .00002286  00000+0  10600-3 0  9992
2 69646  97.4474  90.1014 0025077 278.6860  81.1534 15.20833235  3402
HOKUSHIN-1              
1 69648U 98067YH  26191.84693755  .00015659  00000+0  27331-3 0  9993
2 69648  51.6306 182.8104 0006139 314.0838  45.9645 15.50858797  3322
STARLINK-37656          
1 69649U 26143A   26192.75002315 -.00032757  00000+0 -60253-3 0  9997
2 69649  97.2863 236.6002 0000892 101.7370  18.4553 15.49218510  4408
STARLINK-37646          
1 69650U 26143B   26192.75002315 -.01023865  00000+0 -20192-1 0  9996
2 69650  97.2849 236.7798 0001807  65.0273 105.7692 15.49835874  4400
STARLINK-37749          
1 69651U 26143C   26192.75002315 -.00027931  00000+0 -51379-3 0  9997
2 69651  97.2859 236.7573 0000828 128.0801   4.5874 15.49185752  4403
STARLINK-37819          
1 69652U 26143D   26192.75002315 -.00028643  00000+0 -52623-3 0  9992
2 69652  97.2854 236.7340 0001500  67.8700   0.3686 15.49224731  4403
STARLINK-37729          
1 69653U 26143E   26192.65105252  .00205038  00000+0  95087-3 0  9990
2 69653  97.2833 236.8384 0001006 185.0087 175.1173 15.82890745  4359
STARLINK-37838          
1 69654U 26143F   26192.75002315 -.03351110  00000+0 -63963-1 0  9992
2 69654  97.2843 236.8054 0002581  84.5138 146.9368 15.51982626  4408
STARLINK-37884          
1 69655U 26143G   26192.75002315 -.00040362  00000+0 -74350-3 0  9998
2 69655  97.2855 236.7125 0001189  82.8568 298.8051 15.49218644  4406
STARLINK-37876          
1 69656U 26143H   26192.75002315 -.00676541  00000+0 -13337-1 0  9999
2 69656  97.2853 236.8007 0001654  82.1640 148.5301 15.49621750  4311
STARLINK-37784          
1 69657U 26143J   26192.75002315 -.00026055  00000+0 -47827-3 0  9992
2 69657  97.2856 236.7311 0001606  71.9925 351.2830 15.49230931  4318
STARLINK-37851          
1 69658U 26143K   26192.75002315 -.00026936  00000+0 -49520-3 0  9993
2 69658  97.2852 236.7967 0001051  92.9828 125.8913 15.49194740  4304
STARLINK-37229          
1 69659U 26143L   26192.75002315 -.00037598  00000+0 -69227-3 0  9996
2 69659  97.2857 236.7491 0001522  94.5304  15.6551 15.49216237  4357
STARLINK-37556          
1 69660U 26143M   26192.75002315 -.00025407  00000+0 -46693-3 0  9996
2 69660  97.2858 236.7761 0001594  94.9254  79.2337 15.49191822  4357
STARLINK-37867          
1 69661U 26143N   26192.75002315 -.00026087  00000+0 -47959-3 0  9998
2 69661  97.2852 236.7961 0002031  83.3446 134.0372 15.49185884  4312
STARLINK-37852          
1 69662U 26143P   26192.75002315 -.00034373  00000+0 -63234-3 0  9990
2 69662  97.2854 236.7210 0001304  84.4403 315.9324 15.49223538  4315
STARLINK-37554          
1 69663U 26143Q   26192.75002315 -.00026271  00000+0 -48293-3 0  9997
2 69663  97.2855 236.7735 0001207  76.2286  88.4469 15.49192759  4355
STARLINK-37830          
1 69664U 26143R   26192.75002315 -.00026006  00000+0 -47742-3 0  9992
2 69664  97.2860 236.7379 0001806  90.9946 349.3842 15.49226366  4308
STARLINK-37837          
1 69665U 26143S   26192.75002315 -.02522908  00000+0 -48961-1 0  9999
2 69665  97.2849 236.8007 0002396  69.2419 152.9611 15.51057976  4319
STARLINK-37943          
1 69666U 26143T   26192.75002315 -.00041353  00000+0 -76170-3 0  9993
2 69666  97.2855 236.7384 0001756  78.8321   4.4860 15.49224372  4311
STARLINK-37941          
1 69667U 26143U   26192.75002315 -.00035868  00000+0 -66053-3 0  9997
2 69667  97.2858 236.7653 0001565  65.0135  88.6807 15.49201696  4312
STARLINK-37930          
1 69668U 26143V   26192.75002315 -.00025853  00000+0 -47516-3 0  9994
2 69668  97.2856 236.7679 0001410  85.2603  71.4968 15.49193338  4302
STARLINK-37945          
1 69669U 26143W   26192.75002315 -.00024276  00000+0 -44604-3 0  9998
2 69669  97.2852 236.7987 0001471  87.0614 141.5843 15.49190790  4311
