OBJECT_NAME,OBJECT_ID,EPOCH,MEAN_MOTION,ECCENTRICITY,INCLINATION,RA_OF_ASC_NODE,ARG_OF_PERICENTER,MEAN_ANOMALY,EPHEMERIS_TYPE,CLASSIFICATION_TYPE,NORAD_CAT_ID,ELEMENT_SET_NO,REV_AT_EPOCH,BSTAR,MEAN_MOTION_DOT,MEAN_MOTION_DDOT
KUIPER-00560,2026-140AH,2026-07-11T13:12:18.764352,15.38797580,.00088299,51.8792,280.7614,295.2818,64.7254,0,U,69623,999,498,.36564319E-3,.13892E-3,0
KUIPER-00561,2026-140AJ,2026-07-11T17:56:40.634592,15.38107852,.00092458,51.8826,279.8412,285.6749,74.3218,0,U,69624,999,501,-.15960765E-1,-.566727E-2,0
KUIPER-00564,2026-140AK,2026-07-11T13:17:28.081536,15.37273245,.00093758,51.8812,280.7881,286.2520,73.7435,0,U,69625,999,498,.27355671E-3,.9777E-4,0
KUIPER-00567,2026-140AL,2026-07-10T18:25:40.629504,15.37993440,.00142138,51.8786,284.5160,269.5283,90.4076,0,U,69626,999,486,.54503294E-2,.213007E-2,0
KUIPER-00573,2026-140AM,2026-07-11T11:54:24.402528,15.37412133,.00092307,51.8794,281.1424,272.3380,87.6550,0,U,69627,999,497,.38987856E-3,.14175E-3,0
KZ-11 R/B,2026-138H,2026-07-10T23:06:59.477760,15.40134767,.03883399,55.1536,176.5360,138.7737,224.3326,0,U,69628,999,359,.78774721E-3,.78839E-2,.9705192E-5
CENTISPACE-1 GROUP 05 OBJECT J,2026-138J,2026-07-11T11:57:49.865184,14.15842887,.00093751,55.1383,191.3451,336.9016,23.1536,0,U,69636,999,343,-.77573224E-4,-.307E-5,0
VICTUS HAZE PUMA,2026-142A,2026-07-11T18:11:41.099712,15.20833235,.00250775,97.4474,90.1014,278.6860,81.1534,0,U,69646,999,340,.10600008E-3,.2286E-4,0
HOKUSHIN-1,1998-067YH,2026-07-10T20:19:35.404320,15.50858797,.0006139,51.6306,182.8104,314.0838,45.9645,0,U,69648,999,332,.2733083E-3,.15659E-3,0
STARLINK-37656,2026-143A,2026-07-11T18:00:02.000160,15.49218510,.00008928,97.2863,236.6002,101.7370,18.4553,0,U,69649,999,440,-.60252818E-3,-.32757E-3,0
STARLINK-37646,2026-143B,2026-07-11T18:00:02.000160,15.49835874,.00018075,97.2849,236.7798,65.0273,105.7692,0,U,69650,999,440,-.20192126E-1,-.1023865E-1,0
STARLINK-37749,2026-143C,2026-07-11T18:00:02.000160,15.49185752,.00008288,97.2859,236.7573,128.0801,4.5874,0,U,69651,999,440,-.51379443E-3,-.27931E-3,0
STARLINK-37819,2026-143D,2026-07-11T18:00:02.000160,15.49224731,.00015002,97.2854,236.7340,67.8700,0.3686,0,U,69652,999,440,-.5262298E-3,-.28643E-3,0
STARLINK-37729,2026-143E,2026-07-11T15:37:30.937728,15.82890745,.00010065,97.2833,236.8384,185.0087,175.1173,0,U,69653,999,435,.95086649E-3,.205038E-2,0
STARLINK-37838,2026-143F,2026-07-11T18:00:02.000160,15.51982626,.00025817,97.2843,236.8054,84.5138,146.9368,0,U,69654,999,440,-.63962911E-1,-.335111E-1,0
STARLINK-37884,2026-143G,2026-07-11T18:00:02.000160,15.49218644,.00011897,97.2855,236.7125,82.8568,298.8051,0,U,69655,999,440,-.7435024E-3,-.40362E-3,0
STARLINK-37876,2026-143H,2026-07-11T18:00:02.000160,15.49621750,.00016549,97.2853,236.8007,82.1640,148.5301,0,U,69656,999,431,-.13336502E-1,-.676541E-2,0
STARLINK-37784,2026-143J,2026-07-11T18:00:02.000160,15.49230931,.0001606,97.2856,236.7311,71.9925,351.2830,0,U,69657,999,431,-.47827267E-3,-.26055E-3,0
STARLINK-37851,2026-143K,2026-07-11T18:00:02.000160,15.49194740,.00010514,97.2852,236.7967,92.9828,125.8913,0,U,69658,999,430,-.49519824E-3,-.26936E-3,0
STARLINK-37229,2026-143L,2026-07-11T18:00:02.000160,15.49216237,.00015221,97.2857,236.7491,94.5304,15.6551,0,U,69659,999,435,-.69226747E-3,-.37598E-3,0
STARLINK-37556,2026-143M,2026-07-11T18:00:02.000160,15.49191822,.00015946,97.2858,236.7761,94.9254,79.2337,0,U,69660,999,435,-.46693442E-3,-.25407E-3,0
STARLINK-37867,2026-143N,2026-07-11T18:00:02.000160,15.49185884,.00020312,97.2852,236.7961,83.3446,134.0372,0,U,69661,999,431,-.47959217E-3,-.26087E-3,0
STARLINK-37852,2026-143P,2026-07-11T18:00:02.000160,15.49223538,.00013045,97.2854,236.7210,84.4403,315.9324,0,U,69662,999,431,-.63234151E-3,-.34373E-3,0
STARLINK-37554,2026-143Q,2026-07-11T18:00:02.000160,15.49192759,.00012076,97.2855,236.7735,76.2286,88.4469,0,U,69663,999,435,-.48292986E-3,-.26271E-3,0
STARLINK-37830,2026-143R,2026-07-11T18:00:02.000160,15.49226366,.00018063,97.2860,236.7379,90.9946,349.3842,0,U,69664,999,430,-.4774246E-3,-.26006E-3,0
STARLINK-37837,2026-143S,2026-07-11T18:00:02.000160,15.51057976,.00023967,97.2849,236.8007,69.2419,152.9611,0,U,69665,999,431,-.48960714E-1,-.2522908E-1,0
STARLINK-37943,2026-143T,2026-07-11T18:00:02.000160,15.49224372,.00017562,97.2855,236.7384,78.8321,4.4860,0,U,69666,999,431,-.7617012E-3,-.41353E-3,0
STARLINK-37941,2026-143U,2026-07-11T18:00:02.000160,15.49201696,.00015659,97.2858,236.7653,65.0135,88.6807,0,U,69667,999,431,-.66053033E-3,-.35868E-3,0
STARLINK-37930,2026-143V,2026-07-11T18:00:02.000160,15.49193338,.000141,97.2856,236.7679,85.2603,71.4968,0,U,69668,999,430,-.47516225E-3,-.25853E-3,0
STARLINK-37945,2026-143W,2026-07-11T18:00:02.000160,15.49190790,.00014716,97.2852,236.7987,87.0614,141.5843,0,U,69669,999,431,-.44603782E-3,-.24276E-3,0
